INTELSAT 11 (IS-11) [PM]
1 32253C 07044B   22280.53224537 -.00000178  00000-0  00000-0 0  2805
2 32253   0.0719  92.4715 0001835  97.1691 335.1594  1.00271721    14
HORIZONS-2              
1 32388C 07063B   22276.00000000 -.00000164  00000-0  00000-0 0  2769
2 32388   0.0453  90.1190 0002614 104.1348 103.6582  1.00270037    18
HORIZONS-2              
1 32388C 07063B   22279.00000000 -.00000187  00000-0  00000-0 0  2790
2 32388   0.0291 102.9929 0002674  99.1308  98.7244  1.00268900    10
HORIZONS-2          [PM]
1 32388C 07063B   22280.79283565 -.00000164  00000-0  00000-0 0  2804
2 32388   0.0357  96.7601 0002580 109.4917  21.7813  1.00272008    19
GALAXY 18 (G-18)        
1 32951C 08024A   22276.00000000  .00000115  00000-0  00000-0 0  2768
2 32951   0.0190 257.5145 0003040 290.9752  60.2176  1.00269960    18
GALAXY 18 (G-18)        
1 32951C 08024A   22279.00000000  .00000115  00000-0  00000-0 0  2794
2 32951   0.0120 232.6828 0003113 317.5768  61.4088  1.00269308    18
GALAXY 18 (G-18)    [PM]
1 32951C 08024A   22279.09375000  .00000116  00000-0  00000-0 0  2799
2 32951   0.0119 231.8092 0003156 318.4523  95.2485  1.00269458    18
INTELSAT 25 (IS-25)     
1 33153C 08034A   22276.00000000 -.00000133  00000-0  00000-0 0  2765
2 33153   0.0081 173.1049 0003016   4.7768 162.3239  1.00272669    13
INTELSAT 25 (IS-25)     
1 33153C 08034A   22279.00000000 -.00000130  00000-0  00000-0 0  2798
2 33153   0.0137 213.0640 0003202 333.4766 156.6279  1.00271222    17
INTELSAT 25 (IS-25) [PM]
1 33153C 08034A   22282.31804398 -.00000145  00000-0  00000-0 0  2828
2 33153   0.0590  13.7560 0003172 289.9668 157.1997  1.00272775    15
GALAXY 19 (G-19)        
1 33376C 08045A   22276.00000000 -.00000049  00000-0  00000-0 0  2760
2 33376   0.0189 113.9558 0003047  79.7907  80.9539  1.00270836    19
GALAXY 19 (G-19)        
1 33376C 08045A   22279.00000000 -.00000065  00000-0  00000-0 0  2794
2 33376   0.0032 173.5787 0002924  22.9128  81.1511  1.00271658    16
GALAXY 19 (G-19)    [PM]
1 33376C 08045A   22283.03853009 -.00000049  00000-0  00000-0 0  2834
2 33376   0.0161 270.6282 0003000 312.4748  72.4103  1.00270496    18
INTELSAT 14 (IS-14)     
1 36097C 09064A   22276.00000000 -.00000199  00000-0  00000-0 0  2761
2 36097   0.0000 208.0471 0002444 332.7066 145.9647  1.00270869    10
INTELSAT 14 (IS-14)     
1 36097C 09064A   22279.00000000 -.00000191  00000-0  00000-0 0  2799
2 36097   0.0013 172.5913 0002613  12.1737 144.8972  1.00272373    13
INTELSAT 14 (IS-14) [PM]
1 36097C 09064A   22283.83928241 -.00000183  00000-0  00000-0 0  2837
2 36097   0.0225 266.0693 0002596 300.7333  69.7783  1.00270291    12
INTELSAT 15 (IS-15)     
1 36106C 09067A   22276.00000000 -.00000136  00000-0  00000-0 0  2766
2 36106   0.0340  37.0974 0002304 141.5060 278.2602  1.00271082    10
INTELSAT 15 (IS-15)     
1 36106C 09067A   22279.00000000 -.00000096  00000-0  00000-0 0  2797
2 36106   0.0228 280.3577 0002403 266.8229 272.6281  1.00269699    17
INTELSAT 15 (IS-15) [PM]
1 36106C 09067A   22285.50920139 -.00000141  00000-0  00000-0 0  2851
2 36106   0.0144 313.1908 0002397 253.1632  83.1824  1.00272464    18
INTELSAT 16 (IS-16)     
1 36397C 10006A   22276.00000000 -.00000182  00000-0  00000-0 0  2764
2 36397   0.0288  60.5680 0002181 129.5417 105.4033  1.00271356    16
INTELSAT 16 (IS-16)     
1 36397C 10006A   22279.00000000 -.00000155  00000-0  00000-0 0  2790
2 36397   0.0206 266.9713 0002383 284.8209 106.6656  1.00271801    12
INTELSAT 16 (IS-16) [PM]
1 36397C 10006A   22285.89351852 -.00000227  00000-0  00000-0 0  2855
2 36397   0.0352  27.0516 0002435 187.5375  52.3331  1.00272638    18
INTELSAT 17 (IS-17)     
1 37238C 10065B   22276.00000000  .00000088  00000-0  00000-0 0  2768
2 37238   0.0215 207.6966 0002704 345.1145 244.8828  1.00272342    13
INTELSAT 17 (IS-17)     
1 37238C 10065B   22279.00000000  .00000088  00000-0  00000-0 0  2794
2 37238   0.0216 193.9385 0002911   6.4469 240.2780  1.00272643    13
INTELSAT 17 (IS-17) [PM]
1 37238C 10065B   22282.07597222  .00000088  00000-0  00000-0 0  2826
2 37238   0.0243 231.6221 0002795 326.3310 273.0878  1.00271502    16
INTELSAT NEW DAWN       
1 37392C 11016A   22276.00000000  .00000247  00000-0  00000-0 0  2763
2 37392   0.0133 160.5401 0000831 353.3563 250.6288  1.00269754    16
INTELSAT NEW DAWN   [PM]
1 37392C 11016A   22276.64114583  .00000246  00000-0  00000-0 0  2764
2 37392   0.0151 158.0795 0000809 358.5879 119.2991  1.00269410    16
INTELSAT NEW DAWN       
1 37392C 11016A   22279.00000000  .00000246  00000-0  00000-0 0  2798
2 37392   0.0193 152.4684 0000837  31.2383 223.7622  1.00270892    11
INTELSAT 18 (IS-18)     
1 37834C 11056A   22276.00000000  .00000136  00000-0  00000-0 0  2765
2 37834   0.0385   7.2715 0001898 163.1769  21.2636  1.00268734    16
INTELSAT 18 (IS-18)     
1 37834C 11056A   22279.00000000  .00000150  00000-0  00000-0 0  2797
2 37834   0.0150 300.3057 0001936 234.3002  20.0418  1.00270982    19
INTELSAT 18 (IS-18) [PM]
1 37834C 11056A   22281.69569444  .00000140  00000-0  00000-0 0  2819
2 37834   0.0393  64.7012 0001944  14.1121   8.9406  1.00272607    13
INTELSAT 22 (IS-22)     
1 38098C 12011A   22276.00000000  .00000032  00000-0  00000-0 0  2765
2 38098   0.0080 233.5790 0002945 313.6607 256.5704  1.00268887    13
INTELSAT 22 (IS-22) [PM]
1 38098C 12011A   22278.51525463  .00000027  00000-0  00000-0 0  2784
2 38098   0.0031 200.0733 0002942 347.8349  83.8563  1.00271047    10
INTELSAT 22 (IS-22)     
1 38098C 12011A   22279.00000000  .00000031  00000-0  00000-0 0  2790
2 38098   0.0028 197.8011 0003003 352.5867 256.3627  1.00271520    19
INTELSAT 19 (IS-19)     
1 38356C 12030A   22276.00000000  .00000021  00000-0  00000-0 0  2761
2 38356   0.0076 238.0471 0003061 313.8614 345.7946  1.00271015    17
INTELSAT 19 (IS-19)     
1 38356C 12030A   22279.00000000  .00000041  00000-0  00000-0 0  2799
2 38356   0.0015 201.1359 0003204 356.7510 342.7762  1.00271016    10
INTELSAT 19 (IS-19) [PM]
1 38356C 12030A   22281.75762732  .00000004  00000-0  00000-0 0  2813
2 38356   0.0461  73.3231 0003418  44.0873 338.7162  1.00270952    16
INTELSAT 20 (IS-20)     
1 38740C 12043A   22276.00000000  .00000066  00000-0  00000-0 0  2761
2 38740   0.0110 168.4160 0002297   1.5731 270.2116  1.00270320    14
INTELSAT 20 (IS-20) [PM]
1 38740C 12043A   22278.30685185  .00000059  00000-0  00000-0 0  2783
2 38740   0.0544 332.0203 0002820 313.2432 267.6695  1.00271800    11
INTELSAT 20 (IS-20)     
1 38740C 12043A   22279.00000000  .00000066  00000-0  00000-0 0  2797
2 38740   0.0141 167.8552 0002594   9.8631 265.4303  1.00269868    15
INTELSAT 21 (IS-21)     
1 38749C 12045A   22276.00000000 -.00000195  00000-0  00000-0 0  2766
2 38749   0.0000 198.5638 0002312 345.6367 129.5083  1.00270783    12
INTELSAT 21 (IS-21)     
1 38749C 12045A   22279.00000000 -.00000196  00000-0  00000-0 0  2793
2 38749   0.0011 162.7132 0002434  24.9235 129.0142  1.00271898    11
INTELSAT 21 (IS-21) [PM]
1 38749C 12045A   22283.87380787 -.00000195  00000-0  00000-0 0  2830
2 38749   0.0128 262.2467 0002494 301.5377  72.2490  1.00273140    11
INTELSAT 23 (IS-23)     
1 38867C 12057A   22276.00000000 -.00000195  00000-0  00000-0 0  2760
2 38867   0.0286 257.3931 0000888 208.9464 212.3673  1.00267513    17
INTELSAT 23 (IS-23)     
1 38867C 12057A   22279.00000000 -.00000195  00000-0  00000-0 0  2796
2 38867   0.0318 251.5481 0001217 170.8509 259.2673  1.00272149    14
INTELSAT 23 (IS-23) [PM]
1 38867C 12057A   22282.38418982 -.00000172  00000-0  00000-0 0  2822
2 38867   0.0748  24.5540 0000650 233.7859 204.9795  1.00268085    18
INTELSAT 30 (IS-30)     
1 40271C 14062A   22276.00000000 -.00000061  00000-0  00000-0 0  2762
2 40271   0.0080 237.0185 0002751 211.7681 187.8769  1.00270031    12
INTELSAT 30 (IS-30)     
1 40271C 14062A   22279.00000000 -.00000067  00000-0  00000-0 0  2794
2 40271   0.0046 213.3452 0002452 237.9262 188.3371  1.00269303    16
INTELSAT 30 (IS-30) [PM]
1 40271C 14062A   22279.05953704 -.00000061  00000-0  00000-0 0  2791
2 40271   0.0277 272.2179 0002518 197.9385 190.9439  1.00271044    15
INTELSAT 34 (IS-34)     
1 40874C 15039A   22276.00000000 -.00000195  00000-0  00000-0 0  2764
2 40874   0.0314 308.0436 0000503 125.5562 242.6238  1.00270758    19
INTELSAT 34 (IS-34) [PM]
1 40874C 15039A   22278.97328704 -.00000195  00000-0  00000-0 0  2788
2 40874   0.0132 256.2436 0000291 205.0861 208.1913  1.00272604    10
INTELSAT 34 (IS-34)     
1 40874C 15039A   22279.00000000 -.00000195  00000-0  00000-0 0  2790
2 40874   0.0222 281.3101 0000258 184.7374 213.1190  1.00271381    17
INTELSAT 31 (IS-31)     
1 41581C 16035A   22276.00000000 -.00000061  00000-0  00000-0 0  2769
2 41581   0.0182 231.0778 0001221 324.2829  81.2944  1.00269772    19
INTELSAT 31 (IS-31)     
1 41581C 16035A   22279.00000000 -.00000061  00000-0  00000-0 0  2795
2 41581   0.0224 230.1522 0001372 327.7504  81.7018  1.00268902    19
INTELSAT 31 (IS-31) [PM]
1 41581C 16035A   22279.41319444 -.00000061  00000-0  00000-0 0  2795
2 41581   0.0675  10.9845 0001400 343.4566  74.3160  1.00272016    13
INTELSAT 36 (IS-36)     
1 41747C 16053A   22276.00000000  .00000088  00000-0  00000-0 0  2761
2 41747   0.0056 104.3722 0002627 274.5625  61.2706  1.00270525    18
INTELSAT 36 (IS-36)     
1 41747C 16053A   22279.00000000 -.00004059  00000-0  00000-0 0  2790
2 41747   0.0000 235.6231 0002451 138.0048  69.5205  1.00270346    14
INTELSAT 36 (IS-36) [PM]
1 41747C 16053A   22282.99857639  .00000066  00000-0  00000-0 0  2827
2 41747   0.0153 281.2456 0002495  84.4196  80.9193  1.00271244    16
INTELSAT 33E            
1 41748C 16053B   22276.00000000  .00000137  00000-0  00000-0 0  2767
2 41748   0.0109 261.8419 0001905 279.3635 250.5055  1.00273255    15
